[{"OBJECT_NAME":"ETRSS-1","OBJECT_ID":"2019-093B","EPOCH":"2026-03-09T22:36:35.084736","MEAN_MOTION":14.95232474,"ECCENTRICITY":0.00120616,"INCLINATION":97.7844,"RA_OF_ASC_NODE":153.9141,"ARG_OF_PERICENTER":31.3849,"MEAN_ANOMALY":328.8089,"EPHEMERIS_TYPE":0,"CLASSIFICATION_TYPE":"U","NORAD_CAT_ID":44880,"ELEMENT_SET_NO":999,"REV_AT_EPOCH":33722,"BSTAR":0.00018246379,"MEAN_MOTION_DOT":1.951e-5,"MEAN_MOTION_DDOT":0},{"OBJECT_NAME":"STARLINK-35729","OBJECT_ID":"2025-280S","EPOCH":"2026-03-09T23:21:34.879968","MEAN_MOTION":14.98329385,"ECCENTRICITY":0.00029279,"INCLINATION":70.0029,"RA_OF_ASC_NODE":333.9285,"ARG_OF_PERICENTER":271.5719,"MEAN_ANOMALY":88.5104,"EPHEMERIS_TYPE":0,"CLASSIFICATION_TYPE":"U","NORAD_CAT_ID":66837,"ELEMENT_SET_NO":999,"REV_AT_EPOCH":1611,"BSTAR":0.0014761065,"MEAN_MOTION_DOT":0.00017564,"MEAN_MOTION_DDOT":0}]
